{
    "CCSDS_OMM_VERS": "3.0",
    "COMMENT": "GENERATED VIA SPACE-TRACK.ORG API",
    "CREATION_DATE": "2025-05-22T17:14:14",
    "ORIGINATOR": "18 SPCS",
    "OBJECT_NAME": "GALILEO 31 (10D)",
    "OBJECT_ID": "2024-167B",
    "CENTER_NAME": "EARTH",
    "REF_FRAME": "TEME",
    "TIME_SYSTEM": "UTC",
    "MEAN_ELEMENT_THEORY": "SGP4",
    "EPOCH": "2025-05-22T09:32:58.668000",
    "MEAN_MOTION": "1.70474295",
    "ECCENTRICITY": "0.00022860",
    "INCLINATION": "55.3101",
    "RA_OF_ASC_NODE": "232.0415",
    "ARG_OF_PERICENTER": "193.7976",
    "MEAN_ANOMALY": "149.7642",
    "EPHEMERIS_TYPE": "0",
    "CLASSIFICATION_TYPE": "U",
    "NORAD_CAT_ID": "61183",
    "ELEMENT_SET_NO": "999",
    "REV_AT_EPOCH": "418",
    "BSTAR": "0.00000000000000",
    "MEAN_MOTION_DOT": "0.00000004",
    "MEAN_MOTION_DDOT": "0.0000000000000",
    "SEMIMAJOR_AXIS": "29600.286",
    "PERIOD": "844.702",
    "APOAPSIS": "23228.918",
    "PERIAPSIS": "23215.384",
    "OBJECT_TYPE": "PAYLOAD",
    "RCS_SIZE": "LARGE",
    "COUNTRY_CODE": "ESA",
    "LAUNCH_DATE": "2024-09-17",
    "SITE": "AFETR",
    "DECAY_DATE": null,
    "FILE": "4736220",
    "GP_ID": "288156039",
    "TLE_LINE0": "0 GALILEO 31 (10D)",
    "TLE_LINE1": "1 61183U 24167B   25142.39790125  .00000004  00000-0  00000-0 0  9993",
    "TLE_LINE2": "2 61183  55.3101 232.0415 0002286 193.7976 149.7642  1.70474295  4188"
}